{"type":"FeatureCollection","features":[{"type":"Feature","geometry":{"type":"Point","coordinates":[11.343686,77.748818]},"properties":{"marker-color":"#312E81","marker-size":"medium"}},{"type":"Feature","properties":{},"geometry":{"type":"Point","coordinates":[77.747715,11.343839]}},{"type":"Feature","properties":{"field_id":"field_01"},"geometry":{"type":"Polygon","coordinates":[[[77.745493,11.341712],[77.746014,11.340426],[77.746565,11.340611],[77.74732,11.340658],[77.747304,11.341459],[77.746958,11.342215],[77.745949,11.342051],[77.745493,11.341712]]]}},{"type":"Feature","properties":{"field_id":"field_02"},"geometry":{"type":"Polygon","coordinates":[[[77.747927,11.343178],[77.748637,11.34193],[77.748637,11.34193],[77.748779,11.340867],[77.74969,11.340898],[77.74936,11.341437],[77.749533,11.342161],[77.748889,11.343208],[77.747927,11.343178]]]}},{"type":"Feature","properties":{"field_id":"field_03"},"geometry":{"type":"Polygon","coordinates":[[[77.746922,11.342242],[77.74741,11.341419],[77.747394,11.341402],[77.747377,11.340648],[77.748665,11.340877],[77.748699,11.341402],[77.748398,11.342157],[77.746922,11.342242]]]}},{"type":"Feature","properties":{"field_id":"field_04"},"geometry":{"type":"Polygon","coordinates":[[[77.746914,11.342347],[77.746946,11.343356],[77.746188,11.343442],[77.746039,11.342053],[77.746039,11.342053],[77.746914,11.342347]]]}},{"type":"Feature","properties":{"field_id":"field_05"},"geometry":{"type":"Polygon","coordinates":[[[77.749755,11.340968],[77.750699,11.341139],[77.750177,11.342784],[77.749245,11.34265],[77.749506,11.342138],[77.74937,11.341383],[77.74937,11.341383],[77.749755,11.340968]]]}},{"type":"Feature","properties":{"field_id":"field_06"},"geometry":{"type":"Polygon","coordinates":[[[77.747645,11.3407],[77.747908,11.340183],[77.749646,11.340383],[77.74961,11.340888],[77.747645,11.3407]]]}},{"type":"Feature","properties":{"field_id":"field_07"},"geometry":{"type":"Polygon","coordinates":[[[77.747856,11.340129],[77.747605,11.340658],[77.746598,11.340623],[77.746694,11.339929],[77.747725,11.339389],[77.747856,11.340129]]]}},{"type":"Feature","properties":{"field_id":"field_08"},"geometry":{"type":"Polygon","coordinates":[[[77.750713,11.341143],[77.751543,11.340816],[77.752034,11.34126],[77.751042,11.342994],[77.750203,11.342768],[77.750713,11.341143]]]}},{"type":"Feature","properties":{"field_id":"field_09"},"geometry":{"type":"Polygon","coordinates":[[[77.751492,11.340824],[77.751723,11.339798],[77.751723,11.339798],[77.752916,11.339715],[77.752928,11.339965],[77.751991,11.341205],[77.751492,11.340824]]]}},{"type":"Feature","properties":{"field_id":"field_10"},"geometry":{"type":"Polygon","coordinates":[[[77.749535,11.340755],[77.749921,11.338725],[77.75171,11.339792],[77.751526,11.340913],[77.750493,11.341113],[77.749535,11.340755]]]}}]}
